[{"OBJECT_NAME":"STARLINK-3508","OBJECT_ID":"2022-022L","EPOCH":"2026-03-09T01:29:52.196352","MEAN_MOTION":15.08834436,"ECCENTRICITY":0.00014249,"INCLINATION":53.2183,"RA_OF_ASC_NODE":11.9375,"ARG_OF_PERICENTER":91.4978,"MEAN_ANOMALY":268.6178,"EPHEMERIS_TYPE":0,"CLASSIFICATION_TYPE":"U","NORAD_CAT_ID":51862,"ELEMENT_SET_NO":999,"REV_AT_EPOCH":22307,"BSTAR":7.1122241e-5,"MEAN_MOTION_DOT":8.44e-6,"MEAN_MOTION_DDOT":0},{"OBJECT_NAME":"JILIN-1 KUANFU 01C","OBJECT_ID":"2022-048A","EPOCH":"2026-03-09T22:44:12.026688","MEAN_MOTION":15.09601076,"ECCENTRICITY":0.00140886,"INCLINATION":97.5312,"RA_OF_ASC_NODE":147.8831,"ARG_OF_PERICENTER":308.8335,"MEAN_ANOMALY":51.1636,"EPHEMERIS_TYPE":0,"CLASSIFICATION_TYPE":"U","NORAD_CAT_ID":52443,"ELEMENT_SET_NO":999,"REV_AT_EPOCH":21222,"BSTAR":0.00028577595,"MEAN_MOTION_DOT":4.539e-5,"MEAN_MOTION_DDOT":0}]
